[
  {
    "OBJECT_NAME": "STARLINK-31837",
    "OBJECT_ID": "24183F",
    "EPOCH": "2025-11-11T06:43:59.278080",
    "MEAN_MOTION": 15.30180488,
    "ECCENTRICITY": 0.0001976,
    "INCLINATION": 53.1617,
    "RA_OF_ASC_NODE": 332.4274,
    "ARG_OF_PERICENTER": 37.5013,
    "MEAN_ANOMALY": 322.6125,
    "EPHEMERIS_TYPE": 0,
    "CLASSIFICATION_TYPE": "U",
    "NORAD_CAT_ID": 61514,
    "ELEMENT_SET_NO": 999,
    "REV_AT_EPOCH": 6152,
    "BSTAR": 0.00020275000000000002,
    "MEAN_MOTION_DOT": 5.646e-05,
    "MEAN_MOTION_DDOT": 0.0,
    "TLE_LINE1": "1 61514U 24183F   25315.28054720  .00005646  00000+0  20275-3 0  9998",
    "TLE_LINE2": "2 61514  53.1617 332.4274 0001976  37.5013 322.6125 15.30180488 61522",
    "COMMENT": "Grouped by shell and plane from TLE"
  },
  {
    "OBJECT_NAME": "STARLINK-32136",
    "OBJECT_ID": "24183G",
    "EPOCH": "2025-11-11T07:15:53.880480",
    "MEAN_MOTION": 15.30204515,
    "ECCENTRICITY": 0.0001329,
    "INCLINATION": 53.1609,
    "RA_OF_ASC_NODE": 332.5804,
    "ARG_OF_PERICENTER": 50.7484,
    "MEAN_ANOMALY": 309.3634,
    "EPHEMERIS_TYPE": 0,
    "CLASSIFICATION_TYPE": "U",
    "NORAD_CAT_ID": 61515,
    "ELEMENT_SET_NO": 999,
    "REV_AT_EPOCH": 6152,
    "BSTAR": 0.00017881,
    "MEAN_MOTION_DOT": 4.941e-05,
    "MEAN_MOTION_DDOT": 0.0,
    "TLE_LINE1": "1 61515U 24183G   25315.30270695  .00004941  00000+0  17881-3 0  9999",
    "TLE_LINE2": "2 61515  53.1609 332.5804 0001329  50.7484 309.3634 15.30204515 61520",
    "COMMENT": "Grouped by shell and plane from TLE"
  },
  {
    "OBJECT_NAME": "STARLINK-32047",
    "OBJECT_ID": "24183H",
    "EPOCH": "2025-11-11T06:39:25.286400",
    "MEAN_MOTION": 15.30191574,
    "ECCENTRICITY": 0.0001219,
    "INCLINATION": 53.1616,
    "RA_OF_ASC_NODE": 332.4083,
    "ARG_OF_PERICENTER": 94.4877,
    "MEAN_ANOMALY": 265.6264,
    "EPHEMERIS_TYPE": 0,
    "CLASSIFICATION_TYPE": "U",
    "NORAD_CAT_ID": 61516,
    "ELEMENT_SET_NO": 999,
    "REV_AT_EPOCH": 6152,
    "BSTAR": 0.0001168,
    "MEAN_MOTION_DOT": 3.101e-05,
    "MEAN_MOTION_DDOT": 0.0,
    "TLE_LINE1": "1 61516U 24183H   25315.27737600  .00003101  00000+0  11680-3 0  9998",
    "TLE_LINE2": "2 61516  53.1616 332.4083 0001219  94.4877 265.6264 15.30191574 61529",
    "COMMENT": "Grouped by shell and plane from TLE"
  },
  {
    "OBJECT_NAME": "STARLINK-31756",
    "OBJECT_ID": "24183J",
    "EPOCH": "2025-11-11T07:38:40.875360",
    "MEAN_MOTION": 15.30186857,
    "ECCENTRICITY": 0.0001262,
    "INCLINATION": 53.1638,
    "RA_OF_ASC_NODE": 332.6181,
    "ARG_OF_PERICENTER": 71.4059,
    "MEAN_ANOMALY": 288.7078,
    "EPHEMERIS_TYPE": 0,
    "CLASSIFICATION_TYPE": "U",
    "NORAD_CAT_ID": 61517,
    "ELEMENT_SET_NO": 999,
    "REV_AT_EPOCH": 6152,
    "BSTAR": 0.00012372,
    "MEAN_MOTION_DOT": 3.305e-05,
    "MEAN_MOTION_DDOT": 0.0,
    "TLE_LINE1": "1 61517U 24183J   25315.31852865  .00003305  00000+0  12372-3 0  9990",
    "TLE_LINE2": "2 61517  53.1638 332.6181 0001262  71.4059 288.7078 15.30186857 61527",
    "COMMENT": "Grouped by shell and plane from TLE"
  },
  {
    "OBJECT_NAME": "STARLINK-32172",
    "OBJECT_ID": "24183K",
    "EPOCH": "2025-11-11T06:34:52.352256",
    "MEAN_MOTION": 15.30184423,
    "ECCENTRICITY": 0.0001124,
    "INCLINATION": 53.1608,
    "RA_OF_ASC_NODE": 332.3859,
    "ARG_OF_PERICENTER": 76.7853,
    "MEAN_ANOMALY": 283.3273,
    "EPHEMERIS_TYPE": 0,
    "CLASSIFICATION_TYPE": "U",
    "NORAD_CAT_ID": 61518,
    "ELEMENT_SET_NO": 999,
    "REV_AT_EPOCH": 6152,
    "BSTAR": 5.1065000000000007e-05,
    "MEAN_MOTION_DOT": 1.153e-05,
    "MEAN_MOTION_DDOT": 0.0,
    "TLE_LINE1": "1 61518U 24183K   25315.27421704  .00001153  00000+0  51065-4 0  9992",
    "TLE_LINE2": "2 61518  53.1608 332.3859 0001124  76.7853 283.3273 15.30184423 61526",
    "COMMENT": "Grouped by shell and plane from TLE"
  },
  {
    "OBJECT_NAME": "STARLINK-32338",
    "OBJECT_ID": "24183L",
    "EPOCH": "2025-11-11T06:24:16.255584",
    "MEAN_MOTION": 15.30159854,
    "ECCENTRICITY": 0.0001186,
    "INCLINATION": 53.1615,
    "RA_OF_ASC_NODE": 332.3419,
    "ARG_OF_PERICENTER": 68.1785,
    "MEAN_ANOMALY": 291.9342,
    "EPHEMERIS_TYPE": 0,
    "CLASSIFICATION_TYPE": "U",
    "NORAD_CAT_ID": 61519,
    "ELEMENT_SET_NO": 999,
    "REV_AT_EPOCH": 6152,
    "BSTAR": 0.0,
    "MEAN_MOTION_DOT": -2.71e-05,
    "MEAN_MOTION_DDOT": 0.0,
    "TLE_LINE1": "1 61519U 24183L   25315.26685481 -.00002710  00000+0 -79503-4 0  9995",
    "TLE_LINE2": "2 61519  53.1615 332.3419 0001186  68.1785 291.9342 15.30159854 61526",
    "COMMENT": "Grouped by shell and plane from TLE"
  },
  {
    "OBJECT_NAME": "STARLINK-32306",
    "OBJECT_ID": "24183M",
    "EPOCH": "2025-11-11T06:19:40.103040",
    "MEAN_MOTION": 15.30193537,
    "ECCENTRICITY": 0.0001212,
    "INCLINATION": 53.162,
    "RA_OF_ASC_NODE": 332.3235,
    "ARG_OF_PERICENTER": 105.5991,
    "MEAN_ANOMALY": 254.5144,
    "EPHEMERIS_TYPE": 0,
    "CLASSIFICATION_TYPE": "U",
    "NORAD_CAT_ID": 61520,
    "ELEMENT_SET_NO": 999,
    "REV_AT_EPOCH": 6152,
    "BSTAR": 5.6658e-05,
    "MEAN_MOTION_DOT": 1.319e-05,
    "MEAN_MOTION_DDOT": 0.0,
    "TLE_LINE1": "1 61520U 24183M   25315.26365860  .00001319  00000+0  56658-4 0  9991",
    "TLE_LINE2": "2 61520  53.1620 332.3235 0001212 105.5991 254.5144 15.30193537 61526",
    "COMMENT": "Grouped by shell and plane from TLE"
  },
  {
    "OBJECT_NAME": "STARLINK-32297",
    "OBJECT_ID": "24183N",
    "EPOCH": "2025-11-11T07:49:10.275168",
    "MEAN_MOTION": 15.30189772,
    "ECCENTRICITY": 0.0001685,
    "INCLINATION": 53.1608,
    "RA_OF_ASC_NODE": 331.997,
    "ARG_OF_PERICENTER": 72.2425,
    "MEAN_ANOMALY": 287.876,
    "EPHEMERIS_TYPE": 0,
    "CLASSIFICATION_TYPE": "U",
    "NORAD_CAT_ID": 61521,
    "ELEMENT_SET_NO": 999,
    "REV_AT_EPOCH": 6153,
    "BSTAR": 0.00012937000000000002,
    "MEAN_MOTION_DOT": 3.473e-05,
    "MEAN_MOTION_DDOT": 0.0,
    "TLE_LINE1": "1 61521U 24183N   25315.32581337  .00003473  00000+0  12937-3 0  9992",
    "TLE_LINE2": "2 61521  53.1608 331.9970 0001685  72.2425 287.8760 15.30189772 61530",
    "COMMENT": "Grouped by shell and plane from TLE"
  },
  {
    "OBJECT_NAME": "STARLINK-32260",
    "OBJECT_ID": "24183P",
    "EPOCH": "2025-11-11T06:10:32.317536",
    "MEAN_MOTION": 15.30222289,
    "ECCENTRICITY": 0.000101,
    "INCLINATION": 53.161,
    "RA_OF_ASC_NODE": 332.2787,
    "ARG_OF_PERICENTER": 78.8377,
    "MEAN_ANOMALY": 281.2737,
    "EPHEMERIS_TYPE": 0,
    "CLASSIFICATION_TYPE": "U",
    "NORAD_CAT_ID": 61522,
    "ELEMENT_SET_NO": 999,
    "REV_AT_EPOCH": 6152,
    "BSTAR": 0.0,
    "MEAN_MOTION_DOT": -3.11e-05,
    "MEAN_MOTION_DDOT": 0.0,
    "TLE_LINE1": "1 61522U 24183P   25315.25731849 -.00003110  00000+0 -92871-4 0  9996",
    "TLE_LINE2": "2 61522  53.1610 332.2787 0001010  78.8377 281.2737 15.30222289 61526",
    "COMMENT": "Grouped by shell and plane from TLE"
  },
  {
    "OBJECT_NAME": "STARLINK-32305",
    "OBJECT_ID": "24183Q",
    "EPOCH": "2025-11-11T06:57:39.604608",
    "MEAN_MOTION": 15.30203641,
    "ECCENTRICITY": 0.0001416,
    "INCLINATION": 53.1624,
    "RA_OF_ASC_NODE": 332.4872,
    "ARG_OF_PERICENTER": 81.1788,
    "MEAN_ANOMALY": 278.9373,
    "EPHEMERIS_TYPE": 0,
    "CLASSIFICATION_TYPE": "U",
    "NORAD_CAT_ID": 61523,
    "ELEMENT_SET_NO": 999,
    "REV_AT_EPOCH": 6152,
    "BSTAR": 0.0,
    "MEAN_MOTION_DOT": -1.005e-05,
    "MEAN_MOTION_DDOT": 0.0,
    "TLE_LINE1": "1 61523U 24183Q   25315.29004172 -.00001005  00000+0 -21798-4 0  9994",
    "TLE_LINE2": "2 61523  53.1624 332.4872 0001416  81.1788 278.9373 15.30203641 61522",
    "COMMENT": "Grouped by shell and plane from TLE"
  },
  {
    "OBJECT_NAME": "STARLINK-32296",
    "OBJECT_ID": "24183R",
    "EPOCH": "2025-11-11T07:40:00.287328",
    "MEAN_MOTION": 15.30213704,
    "ECCENTRICITY": 0.0001207,
    "INCLINATION": 53.1619,
    "RA_OF_ASC_NODE": 331.9546,
    "ARG_OF_PERICENTER": 97.1294,
    "MEAN_ANOMALY": 262.9844,
    "EPHEMERIS_TYPE": 0,
    "CLASSIFICATION_TYPE": "U",
    "NORAD_CAT_ID": 61524,
    "ELEMENT_SET_NO": 999,
    "REV_AT_EPOCH": 6153,
    "BSTAR": 0.00020894,
    "MEAN_MOTION_DOT": 5.836e-05,
    "MEAN_MOTION_DDOT": 0.0,
    "TLE_LINE1": "1 61524U 24183R   25315.31944777  .00005836  00000+0  20894-3 0  9991",
    "TLE_LINE2": "2 61524  53.1619 331.9546 0001207  97.1294 262.9844 15.30213704 61534",
    "COMMENT": "Grouped by shell and plane from TLE"
  },
  {
    "OBJECT_NAME": "STARLINK-32298",
    "OBJECT_ID": "24183S",
    "EPOCH": "2025-11-11T07:35:28.739904",
    "MEAN_MOTION": 15.30200956,
    "ECCENTRICITY": 0.0001466,
    "INCLINATION": 53.162,
    "RA_OF_ASC_NODE": 331.9378,
    "ARG_OF_PERICENTER": 78.6496,
    "MEAN_ANOMALY": 281.467,
    "EPHEMERIS_TYPE": 0,
    "CLASSIFICATION_TYPE": "U",
    "NORAD_CAT_ID": 61525,
    "ELEMENT_SET_NO": 999,
    "REV_AT_EPOCH": 6153,
    "BSTAR": 3.8005e-05,
    "MEAN_MOTION_DOT": 7.66e-06,
    "MEAN_MOTION_DDOT": 0.0,
    "TLE_LINE1": "1 61525U 24183S   25315.31630486  .00000766  00000+0  38005-4 0  9992",
    "TLE_LINE2": "2 61525  53.1620 331.9378 0001466  78.6496 281.4670 15.30200956 61533",
    "COMMENT": "Grouped by shell and plane from TLE"
  },
  {
    "OBJECT_NAME": "STARLINK-32293",
    "OBJECT_ID": "24183T",
    "EPOCH": "2025-11-11T07:31:05.352096",
    "MEAN_MOTION": 15.30201572,
    "ECCENTRICITY": 0.0001587,
    "INCLINATION": 53.1625,
    "RA_OF_ASC_NODE": 332.627,
    "ARG_OF_PERICENTER": 93.6559,
    "MEAN_ANOMALY": 266.4623,
    "EPHEMERIS_TYPE": 0,
    "CLASSIFICATION_TYPE": "U",
    "NORAD_CAT_ID": 61526,
    "ELEMENT_SET_NO": 999,
    "REV_AT_EPOCH": 6152,
    "BSTAR": 0.00015835,
    "MEAN_MOTION_DOT": 4.333e-05,
    "MEAN_MOTION_DDOT": 0.0,
    "TLE_LINE1": "1 61526U 24183T   25315.31325639  .00004333  00000+0  15835-3 0  9993",
    "TLE_LINE2": "2 61526  53.1625 332.6270 0001587  93.6559 266.4623 15.30201572 61524",
    "COMMENT": "Grouped by shell and plane from TLE"
  }
]